[{"OBJECT_NAME":"STARLINK-5881","OBJECT_ID":"2023-088G","EPOCH":"2026-03-09T10:38:00.754656","MEAN_MOTION":15.02534394,"ECCENTRICITY":0.00012216,"INCLINATION":43.0018,"RA_OF_ASC_NODE":108.7289,"ARG_OF_PERICENTER":269.8022,"MEAN_ANOMALY":90.268,"EPHEMERIS_TYPE":0,"CLASSIFICATION_TYPE":"U","NORAD_CAT_ID":57054,"ELEMENT_SET_NO":999,"REV_AT_EPOCH":15033,"BSTAR":-1.5253846e-5,"MEAN_MOTION_DOT":-4.1e-6,"MEAN_MOTION_DDOT":0},{"OBJECT_NAME":"UNKNOWN","OBJECT_ID":"","EPOCH":"2026-03-09T10:30:41.440032","MEAN_MOTION":14.01503823,"ECCENTRICITY":0.0581998,"INCLINATION":65.7904,"RA_OF_ASC_NODE":128.3867,"ARG_OF_PERICENTER":3.0119,"MEAN_ANOMALY":357.4216,"EPHEMERIS_TYPE":0,"CLASSIFICATION_TYPE":"U","NORAD_CAT_ID":87690,"ELEMENT_SET_NO":999,"REV_AT_EPOCH":61952,"BSTAR":0.00073444,"MEAN_MOTION_DOT":5.044e-5,"MEAN_MOTION_DDOT":0}]
